M-CUBED & EXP-1 PRIME   
1 37855U 11061F   24006.14597161  .00051760  00000+0  10508-2 0  9997
2 37855 101.6916  90.1174 0085816 132.5024 228.3499 15.42219411668132
AEROCUBE 4.5A           
1 38767U 12048K   24005.70216156  .00006906  00000+0  44068-3 0  9990
2 38767  64.6624 117.5444 0103261  79.1158 282.1559 15.05122387235827
AEROCUBE 4.5B           
1 38768U 12048L   24006.17978161  .00012182  00000+0  59845-3 0  9996
2 38768  64.6632  51.4791 0082612  67.8754 293.1112 15.15388839236656
STRAND-1                
1 39090U 13009E   24006.08596378  .00000400  00000+0  15269-3 0  9991
2 39090  98.3796 198.8617 0009366  25.9801 334.1854 14.35835818568850
BRITE-AUSTRIA           
1 39091U 13009F   24006.10569159  .00000249  00000+0  10084-3 0  9993
2 39091  98.3831 198.1365 0010964  31.9278 328.2570 14.35645866568878
BEESAT-2                
1 39136U 13015G   24006.41227378  .00281120  00000+0  14567-2 0  9996
2 39136  64.8536  16.1426 0010439 292.5612  67.4439 15.79939760593725
NEE-01 PEGASO           
1 39151U 13018B   24006.28420473  .00002714  00000+0  33013-3 0  9990
2 39151  98.0220 122.1889 0015083 206.9593 153.0839 14.84238276577805
ESTCUBE 1               
1 39161U 13021C   24006.15031635  .00001777  00000+0  26909-3 0  9993
2 39161  97.8510  77.5513 0009920  43.2172 316.9814 14.75352490573084
POPACS 1                
1 39268U 13055D   24005.94013211  .00023815  00000+0  47494-3 0  9993
2 39268  80.9879 336.7728 0451800 252.7400 102.3909 14.80545661536294
POPACS 2                
1 39269U 13055E   24005.58990087  .00010738  00000+0  25796-3 0  9990
2 39269  81.0053  56.1042 0578886  99.6251 267.0805 14.50082571531831
POPACS 3                
1 39270U 13055F   24005.66235846  .00011424  00000+0  32589-3 0  9997
2 39270  81.0120 101.6257 0645250 227.4300 127.0700 14.32522092509514
ZACUBE-1 (TSHEPISOSAT)  
1 39417U 13066B   24006.46405228  .00004229  00000+0  46632-3 0  9993
2 39417  97.7137 326.5823 0052405 339.9916  19.9245 14.87024219547380
WNISAT-1                
1 39423U 13066H   24006.51431063  .00001092  00000+0  21845-3 0  9996
2 39423  97.6781 213.9780 0171661 159.3722 201.4519 14.54725536536998
TRITON-1                
1 39427U 13066M   24006.45755870  .00002625  00000+0  38699-3 0  9996
2 39427  97.8422 289.8882 0103779 245.3387 113.6986 14.72577691542445
DELFI-N3XT              
1 39428U 13066N   24005.76172773  .00004768  00000+0  65107-3 0  9999
2 39428  97.8387 288.7842 0104045 257.3452 101.6109 14.75359681541974
GOMX-1                  
1 39430U 13066Q   24006.47340848  .00001928  00000+0  33239-3 0  9997
2 39430  97.7550 250.6082 0144002  49.8213 311.5494 14.62980354539247
CUBEBUG-2 (LO-74)       
1 39440U 13066AA  24005.81962998  .00003087  00000+0  38396-3 0  9998
2 39440  97.7967 313.4512 0074364  87.3584 273.6139 14.81294827544139
NEE-02 KRYSAOR          
1 39441U 13066AB  24005.83163644  .00001904  00000+0  25347-3 0  9990
2 39441  97.8071 309.8647 0077764 106.2060 254.7727 14.78745378543783
FUNCUBE-1 (AO-73)       
1 39444U 13066AE  24005.89387290  .00005935  00000+0  61825-3 0  9993
2 39444  97.6990 328.8172 0049769 324.9131  34.8812 14.89259114546370
UWE-3                   
1 39446U 13066AG  24005.85373489  .00003760  00000+0  44203-3 0  9991
2 39446  97.7619 319.5585 0064307  36.7605 323.7993 14.83972266544467
BRITE-CA1 (TORONTO)     
1 40020U 14033L   24006.36932631  .00001426  00000+0  24106-3 0  9990
2 40020  97.8515 149.5727 0083031 251.6532 107.5630 14.68683008511077
DUCHIFAT-1              
1 40021U 14033M   24005.89446194  .00008659  00000+0  66073-3 0  9996
2 40021  98.0728 342.1982 0012516 296.3395  63.6543 15.02204631519572
NANOSATC-BR1            
1 40024U 14033Q   24005.84754876  .00007470  00000+0  61445-3 0  9991
2 40024  98.0548 331.8260 0008750 347.7473  12.3535 14.99408097518749
QB50P1                  
1 40025U 14033R   24005.84836390  .00004609  00000+0  40925-3 0  9995
2 40025  98.0221 321.8632 0010704 351.2847   8.8186 14.96635537518422
QB50P2                  
1 40032U 14033Y   24005.82536538  .00004179  00000+0  38110-3 0  9997
2 40032  97.9896 314.5395 0010179 350.5946   9.5082 14.95636955518235
PERSEUS-M2              
1 40037U 14033AD  24006.36921050  .00001851  00000+0  20037-3 0  9992
2 40037  97.9192 296.8154 0014076  18.1683 342.0034 14.89425693518082
PERSEUS-M1              
1 40039U 14033AF  24006.50089955  .00001699  00000+0  18572-3 0  9990
2 40039  97.9017 293.4483 0013901  17.3543 342.8147 14.89141836517974
POLYITAN-1              
1 40042U 14033AJ  24006.42053673  .00007425  00000+0  62806-3 0  9995
2 40042  98.0327 325.0272 0011159 339.8115  20.2663 14.98307814518940
TIGRISAT                
1 40043U 14033AK  24006.01193365  .00002201  00000+0  30585-3 0  9990
2 40043  97.6751 176.1246 0057699 114.1158 246.6103 14.77680611513655
AEROCUBE 6A             
1 40045U 14033AM  24005.48243632  .00004065  00000+0  51853-3 0  9996
2 40045  97.6577 185.8442 0053734  97.8588 262.8729 14.80982611513549
AEROCUBE 6B             
1 40046U 14033AN  24005.94902974  .00003986  00000+0  49930-3 0  9993
2 40046  97.6532 184.8681 0052338  92.5935 268.1272 14.81800813513650
UKUBE-1                 
1 40074U 14037F   24006.33284231  .00005154  00000+0  52904-3 0  9995
2 40074  98.3404 286.7209 0002336 238.5788 121.5201 14.90878800514494
BRITE-PL2 (HEWELIUSZ)   
1 40119U 14049B   24005.84060187  .00001945  00000+0  21907-3 0  9998
2 40119  97.8824 106.4625 0016349 177.4240 182.7063 14.87706523508280
GRIFEX                  
1 40379U 15003D   24006.48301766  .00152795  00000+0  99140-3 0  9993
2 40379  99.0826   2.0435 0034051 276.5177  83.2206 15.74720479494948
CP10 (EXOCUBE)          
1 40380U 15003E   24005.87384335  .00050361  00000+0  84198-3 0  9993
2 40380  99.0992 345.9487 0068024 330.0123  29.7234 15.49113951493908
EXACTVIEW 9             
1 40936U 15052G   24006.07845669  .00002815  00000+0  28083-3 0  9991
2 40936   6.0026  75.6655 0010627 288.6842  71.2132 14.79620840447389
AEROCUBE 5C             
1 40965U 15058B   24006.49055907  .00001936  00000+0  20713-3 0  9998
2 40965  64.7705 140.3851 0177714 359.7205   0.3772 14.80980966232923
AEROCUBE 7              
1 40966U 15058C   24006.48069944  .00002598  00000+0  26522-3 0  9993
2 40966  64.7690 135.4803 0174162 359.4208   0.6669 14.82335503232991
VELOX-II                
1 41171U 15077F   24005.93772489  .00037986  00000+0  87250-3 0  9991
2 41171  14.9896 243.7445 0003778 223.3795 136.6232 15.40630068446424
HORYU-4                 
1 41340U 16012D   24006.23365928  .00008211  00000+0  46229-3 0  9999
2 41340  31.0047 313.7074 0010038 124.6424 235.5162 15.11848731433439
E-ST@R-II               
1 41459U 16025D   24006.42317465  .00056997  00000+0  90678-3 0  9999
2 41459  98.1550 235.7859 0071457 101.2689 259.6601 15.50168080424141
RAVAN                   
1 41849U 16067B   24006.44354483  .00008394  00000+0  52186-3 0  9991
2 41849  98.0510 175.2250 0013990 219.2826 140.7387 15.09840270391396
CELTEE 1                
1 41850U 16067C   24006.43715812  .00004343  00000+0  31885-3 0  9992
2 41850  98.0844 168.0626 0001772  69.0592 291.0822 15.04031657390941
OPTICUBE 04             
1 41851U 16067D   24005.93155155  .00002817  00000+0  22441-3 0  9997
2 41851  98.0452 164.4553 0014934 238.7126 121.2635 15.01152651390736
AEROCUBE 8D             
1 41852U 16067E   24005.40232732  .00005764  00000+0  41331-3 0  9990
2 41852  98.0871 166.3735 0004925 302.1011  57.9735 15.04770703390747
AEROCUBE 8C             
1 41853U 16067F   24006.40600456  .00004942  00000+0  35566-3 0  9994
2 41853  98.0674 166.4236 0007939 223.9906 136.0688 15.04694640390883
PROMETHEUS 2-1          
1 41854U 16067G   24006.01643378  .00011040  00000+0  66799-3 0  9991
2 41854  98.0844 171.0636 0014144 251.8171 108.1518 15.10740430391057
PROMETHEUS 2-3          
1 41855U 16067H   24005.41542808  .00011013  00000+0  66724-3 0  9999
2 41855  98.0770 170.0797 0011964 264.8822  95.1041 15.10717044390967
DIDO-2                  
1 42000U 17008BE  24006.11642367  .00039877  00000+0  64642-3 0  9992
2 42000  97.1725  65.2216 0005209  30.1047 330.0504 15.52657308383272
AALTO-1                 
1 42775U 17036L   24006.07182692  .00028675  00000+0  57373-3 0  9994
2 42775  97.1302  36.4112 0009545  88.1112 272.1231 15.46683569363755
URSA MAIOR              
1 42776U 17036M   24005.61818433  .00037396  00000+0  63522-3 0  9996
2 42776  97.1302  38.1998 0008539  82.1992 278.0230 15.51332821363818
DIAMOND RED             
1 42783U 17036U   24005.61129355  .00054095  00000+0  68406-3 0  9993
2 42783  97.1224  42.8375 0006361  84.3031 275.8951 15.59339287364119
PEGASUS                 
1 42784U 17036V   24006.27177748  .03234596  22663-5  12857-2 0  9998
2 42784  97.0864  50.8519 0002041 263.6258  96.4801 16.23735480364727
DIAMOND GREEN           
1 42785U 17036W   24006.09828038  .00077094  00000+0  81548-3 0  9998
2 42785  97.1194  44.1399 0005855  80.8837 279.3085 15.63901343364233
DIAMOND BLUE            
1 42786U 17036X   24006.08675259  .00070868  00000+0  82986-3 0  9992
2 42786  97.1233  43.7515 0006417  78.2338 281.9640 15.61294818364208
CICERO 6                
1 42793U 17036AE  24006.04312450  .00043489  00000+0  67658-3 0  9995
2 42793  97.1217  42.4442 0006850  78.5044 281.6979 15.53770478364227
CORVUS BC2              
1 42846U 17042X   24006.48303002  .00003469  00000+0  31299-3 0  9998
2 42846  97.3723 200.8220 0007099 243.2958 116.7537 14.96119387353100
CORVUS BC1              
1 42847U 17042Y   24005.52370781  .00002672  00000+0  24138-3 0  9990
2 42847  97.3714 200.2964 0007185 248.8536 111.1918 14.96239401352975
